STARLINK-31951          
1 59890U 24100F   26068.52219140 -.00003069  00000+0 -10211-3 0  9991
2 59890  42.9998 126.1377 0000900 306.1057  53.9711 15.27567684101034
FLOCK 4G-5              
1 62663U 25009BG  26068.45638436  .00011278  00000+0  40688-3 0  9997
2 62663  97.4058 151.2478 0002094 314.5072  45.5996 15.28679529 63699
