[{"OBJECT_NAME":"STARLINK-31951","OBJECT_ID":"2024-100F","EPOCH":"2026-03-09T12:31:57.336960","MEAN_MOTION":15.27567684,"ECCENTRICITY":9.009e-5,"INCLINATION":42.9998,"RA_OF_ASC_NODE":126.1377,"ARG_OF_PERICENTER":306.1057,"MEAN_ANOMALY":53.9711,"EPHEMERIS_TYPE":0,"CLASSIFICATION_TYPE":"U","NORAD_CAT_ID":59890,"ELEMENT_SET_NO":999,"REV_AT_EPOCH":10103,"BSTAR":-0.0001021069,"MEAN_MOTION_DOT":-3.069e-5,"MEAN_MOTION_DDOT":0},{"OBJECT_NAME":"FLOCK 4G-5","OBJECT_ID":"2025-009BG","EPOCH":"2026-03-09T10:57:11.608704","MEAN_MOTION":15.28679529,"ECCENTRICITY":0.00020946,"INCLINATION":97.4058,"RA_OF_ASC_NODE":151.2478,"ARG_OF_PERICENTER":314.5072,"MEAN_ANOMALY":45.5996,"EPHEMERIS_TYPE":0,"CLASSIFICATION_TYPE":"U","NORAD_CAT_ID":62663,"ELEMENT_SET_NO":999,"REV_AT_EPOCH":6369,"BSTAR":0.00040688068,"MEAN_MOTION_DOT":0.00011278,"MEAN_MOTION_DDOT":0}]
